{"type": "FeatureCollection", "features": [ {"type": "Feature", "properties": {"norad_id": 29820, "name": "FENGYUN 1C DEB", "group": "fengyun-1c-debris", "lat": -80.59436558070696, "lon": 65.74258131674647, "alt_km": 852.7814844552067, "timestamp": "2025-12-14T22:38:41.029542+00:00", "meta": {"OBJECT_NAME": "FENGYUN 1C DEB", "OBJECT_ID": "1999-025DN", "EPOCH": "2025-12-14T07:44:02.912352", "MEAN_MOTION": 14.02607952, "ECCENTRICITY": 0.00721638, "INCLINATION": 98.8319, "RA_OF_ASC_NODE": 355.3258, "ARG_OF_PERICENTER": 233.2884, "MEAN_ANOMALY": 144.0784, "EPHEMERIS_TYPE": 0, "CLASSIFICATION_TYPE": "U", "NORAD_CAT_ID": 29820, "ELEMENT_SET_NO": 999, "REV_AT_EPOCH": 96582, "BSTAR": 0.00077911609, "MEAN_MOTION_DOT": 1.186e-05, "MEAN_MOTION_DDOT": 0}, "tle": {"line1": "1 29820U 99025DN  25348.32225593  .00001186  00000+0  77912-3 0  9993", "line2": "2 29820  98.8319 355.3258 0072163 233.2884 144.0784 14.02607952965825"}}, "geometry": {"type": "Point", "coordinates": [65.74258131674647, -80.59436558070696]}}, {"type": "Feature", "properties": {"norad_id": 29821, "name": "FENGYUN 1C DEB", "group": "fengyun-1c-debris", "lat": 24.249065597525078, "lon": 39.88148996612558, "alt_km": 843.8135394238734, "timestamp": "2025-12-14T22:38:41.029552+00:00", "meta": {"OBJECT_NAME": "FENGYUN 1C DEB", "OBJECT_ID": "1999-025DP", "EPOCH": "2025-12-14T02:22:33.616416", "MEAN_MOTION": 14.11079533, "ECCENTRICITY": 0.03762385, "INCLINATION": 98.874, "RA_OF_ASC_NODE": 43.0803, "ARG_OF_PERICENTER": 116.8613, "MEAN_ANOMALY": 304.3786, "EPHEMERIS_TYPE": 0, "CLASSIFICATION_TYPE": "U", "NORAD_CAT_ID": 29821, "ELEMENT_SET_NO": 999, "REV_AT_EPOCH": 96530, "BSTAR": 0.0010032687, "MEAN_MOTION_DOT": 3.475e-05, "MEAN_MOTION_DDOT": 0}, "tle": {"line1": "1 29821U 99025DP  25348.09900019  .00003475  00000+0  10033-2 0  9994", "line2": "2 29821  98.8740  43.0803 0376238 116.8613 304.3786 14.11079533965301"}}, "geometry": {"type": "Point", "coordinates": [39.88148996612558, 24.249065597525078]}}, {"type": "Feature", "properties": {"norad_id": 29827, "name": "FENGYUN 1C DEB", "group": "fengyun-1c-debris", "lat": 79.35350232340645, "lon": -146.28080487311232, "alt_km": 826.0542435448078, "timestamp": "2025-12-14T22:38:41.029562+00:00", "meta": {"OBJECT_NAME": "FENGYUN 1C DEB", "OBJECT_ID": "1999-025DV", "EPOCH": "2025-12-14T05:36:19.156320", "MEAN_MOTION": 14.21690327, "ECCENTRICITY": 0.00249492, "INCLINATION": 98.6022, "RA_OF_ASC_NODE": 339.3945, "ARG_OF_PERICENTER": 318.0389, "MEAN_ANOMALY": 106.3968, "EPHEMERIS_TYPE": 0, "CLASSIFICATION_TYPE": "U", "NORAD_CAT_ID": 29827, "ELEMENT_SET_NO": 999, "REV_AT_EPOCH": 97884, "BSTAR": 0.00046061676, "MEAN_MOTION_DOT": 9.72e-06, "MEAN_MOTION_DDOT": 0}, "tle": {"line1": "1 29827U 99025DV  25348.23355505  .00000972  00000+0  46062-3 0  9991", "line2": "2 29827  98.6022 339.3945 0024949 318.0389 106.3968 14.21690327978847"}}, "geometry": {"type": "Point", "coordinates": [-146.28080487311232, 79.35350232340645]}}, {"type": "Feature", "properties": {"norad_id": 29828, "name": "FENGYUN 1C DEB", "group": "fengyun-1c-debris", "lat": 43.968913462910606, "lon": 25.787302786432615, "alt_km": 873.3260184449864, "timestamp": "2025-12-14T22:38:41.029572+00:00", "meta": {"OBJECT_NAME": "FENGYUN 1C DEB", "OBJECT_ID": "1999-025DW", "EPOCH": "2025-12-14T02:13:55.545600", "MEAN_MOTION": 14.0816751, "ECCENTRICITY": 0.00614295, "INCLINATION": 98.7704, "RA_OF_ASC_NODE": 33.525, "ARG_OF_PERICENTER": 152.3448, "MEAN_ANOMALY": 263.7725, "EPHEMERIS_TYPE": 0, "CLASSIFICATION_TYPE": "U", "NORAD_CAT_ID": 29828, "ELEMENT_SET_NO": 999, "REV_AT_EPOCH": 96756, "BSTAR": 0.00095020233, "MEAN_MOTION_DOT": 1.607e-05, "MEAN_MOTION_DDOT": 0}, "tle": {"line1": "1 29828U 99025DW  25348.09300400  .00001607  00000+0  95020-3 0  9994", "line2": "2 29828  98.7704  33.5250 0061429 152.3448 263.7725 14.08167510967561"}}, "geometry": {"type": "Point", "coordinates": [25.787302786432615, 43.968913462910606]}}, {"type": "Feature", "properties": {"norad_id": 29832, "name": "FENGYUN 1C DEB", "group": "fengyun-1c-debris", "lat": 76.6498639484359, "lon": -38.640444439189, "alt_km": 832.9059583573708, "timestamp": "2025-12-14T22:38:41.029583+00:00", "meta": {"OBJECT_NAME": "FENGYUN 1C DEB", "OBJECT_ID": "1999-025EA", "EPOCH": "2025-12-14T00:44:37.497984", "MEAN_MOTION": 14.56558839, "ECCENTRICITY": 0.01922095, "INCLINATION": 98.8194, "RA_OF_ASC_NODE": 99.5331, "ARG_OF_PERICENTER": 279.1529, "MEAN_ANOMALY": 78.7969, "EPHEMERIS_TYPE": 0, "CLASSIFICATION_TYPE": "U", "NORAD_CAT_ID": 29832, "ELEMENT_SET_NO": 999, "REV_AT_EPOCH": 274, "BSTAR": 0.00021466327, "MEAN_MOTION_DOT": 1.162e-05, "MEAN_MOTION_DDOT": 0}, "tle": {"line1": "1 29832U 99025EA  25348.03098956  .00001162  00000+0  21466-3 0  9992", "line2": "2 29832  98.8194  99.5331 0192209 279.1529  78.7969 14.56558839  2746"}}, "geometry": {"type": "Point", "coordinates": [-38.640444439189, 76.6498639484359]}}, {"type": "Feature", "properties": {"norad_id": 29833, "name": "FENGYUN 1C DEB", "group": "fengyun-1c-debris", "lat": 21.018837090525782, "lon": -31.92920923620199, "alt_km": 634.7240902046033, "timestamp": "2025-12-14T22:38:41.029593+00:00", "meta": {"OBJECT_NAME": "FENGYUN 1C DEB", "OBJECT_ID": "1999-025EB", "EPOCH": "2025-12-12T22:14:05.267904", "MEAN_MOTION": 14.91112667, "ECCENTRICITY": 0.00887773, "INCLINATION": 99.0776, "RA_OF_ASC_NODE": 329.2748, "ARG_OF_PERICENTER": 256.4892, "MEAN_ANOMALY": 102.6419, "EPHEMERIS_TYPE": 0, "CLASSIFICATION_TYPE": "U", "NORAD_CAT_ID": 29833, "ELEMENT_SET_NO": 999, "REV_AT_EPOCH": 574, "BSTAR": 0.0016003222, "MEAN_MOTION_DOT": 0.00017065, "MEAN_MOTION_DDOT": 0}, "tle": {"line1": "1 29833U 99025EB  25346.92644986  .00017065  00000+0  16003-2 0  9998", "line2": "2 29833  99.0776 329.2748 0088777 256.4892 102.6419 14.91112667  5740"}}, "geometry": {"type": "Point", "coordinates": [-31.92920923620199, 21.018837090525782]}}, {"type": "Feature", "properties": {"norad_id": 29835, "name": "FENGYUN 1C DEB", "group": "fengyun-1c-debris", "lat": -9.521923201242736, "lon": -64.06266434120266, "alt_km": 862.7417381691976, "timestamp": "2025-12-14T22:38:41.029603+00:00", "meta": {"OBJECT_NAME": "FENGYUN 1C DEB", "OBJECT_ID": "1999-025ED", "EPOCH": "2025-12-14T07:03:50.113728", "MEAN_MOTION": 14.43375354, "ECCENTRICITY": 0.0167862, "INCLINATION": 99.0257, "RA_OF_ASC_NODE": 116.7772, "ARG_OF_PERICENTER": 32.632, "MEAN_ANOMALY": 24.7704, "EPHEMERIS_TYPE": 0, "CLASSIFICATION_TYPE": "U", "NORAD_CAT_ID": 29835, "ELEMENT_SET_NO": 999, "REV_AT_EPOCH": 99517, "BSTAR": 7.7217794e-05, "MEAN_MOTION_DOT": 2.52e-06, "MEAN_MOTION_DDOT": 0}, "tle": {"line1": "1 29835U 99025ED  25348.29433002  .00000252  00000+0  77218-4 0  9994", "line2": "2 29835  99.0257 116.7772 0167862  32.6320  24.7704 14.43375354995172"}}, "geometry": {"type": "Point", "coordinates": [-64.06266434120266, -9.521923201242736]}}, {"type": "Feature", "properties": {"norad_id": 29836, "name": "FENGYUN 1C DEB", "group": "fengyun-1c-debris", "lat": 17.52072340039533, "lon": -92.55941610603011, "alt_km": 620.6168780662565, "timestamp": "2025-12-14T22:38:41.029614+00:00", "meta": {"OBJECT_NAME": "FENGYUN 1C DEB", "OBJECT_ID": "1999-025EE", "EPOCH": "2025-12-13T18:25:52.446432", "MEAN_MOTION": 14.54112816, "ECCENTRICITY": 0.01545725, "INCLINATION": 98.1875, "RA_OF_ASC_NODE": 83.6851, "ARG_OF_PERICENTER": 199.1844, "MEAN_ANOMALY": 293.7338, "EPHEMERIS_TYPE": 0, "CLASSIFICATION_TYPE": "U", "NORAD_CAT_ID": 29836, "ELEMENT_SET_NO": 999, "REV_AT_EPOCH": 63570, "BSTAR": 0.00086417937, "MEAN_MOTION_DOT": 4.231e-05, "MEAN_MOTION_DDOT": 0}, "tle": {"line1": "1 29836U 99025EE  25347.76796813  .00004231  00000+0  86418-3 0  9990", "line2": "2 29836  98.1875  83.6851 0154572 199.1844 293.7338 14.54112816635708"}}, "geometry": {"type": "Point", "coordinates": [-92.55941610603011, 17.52072340039533]}}, {"type": "Feature", "properties": {"norad_id": 29841, "name": "FENGYUN 1C DEB", "group": "fengyun-1c-debris", "lat": 60.06209936816229, "lon": 131.81934767368355, "alt_km": 856.0608099685987, "timestamp": "2025-12-14T22:38:41.029624+00:00", "meta": {"OBJECT_NAME": "FENGYUN 1C DEB", "OBJECT_ID": "1999-025EK", "EPOCH": "2025-12-14T07:52:51.804768", "MEAN_MOTION": 14.46486186, "ECCENTRICITY": 0.02003757, "INCLINATION": 98.818, "RA_OF_ASC_NODE": 295.542, "ARG_OF_PERICENTER": 328.9125, "MEAN_ANOMALY": 187.1775, "EPHEMERIS_TYPE": 0, "CLASSIFICATION_TYPE": "U", "NORAD_CAT_ID": 29841, "ELEMENT_SET_NO": 999, "REV_AT_EPOCH": 99346, "BSTAR": 0.00065553935, "MEAN_MOTION_DOT": 2.97e-05, "MEAN_MOTION_DDOT": 0}, "tle": {"line1": "1 29841U 99025EK  25348.32837737  .00002970  00000+0  65554-3 0  9996", "line2": "2 29841  98.8180 295.5420 0200375 328.9125 187.1775 14.46486186993469"}}, "geometry": {"type": "Point", "coordinates": [131.81934767368355, 60.06209936816229]}}, {"type": "Feature", "properties": {"norad_id": 29842, "name": "FENGYUN 1C DEB", "group": "fengyun-1c-debris", "lat": -79.42759197723223, "lon": 130.44028020659326, "alt_km": 734.6844565689689, "timestamp": "2025-12-14T22:38:41.029633+00:00", "meta": {"OBJECT_NAME": "FENGYUN 1C DEB", "OBJECT_ID": "1999-025EL", "EPOCH": "2025-12-14T05:11:47.581152", "MEAN_MOTION": 14.60282713, "ECCENTRICITY": 0.01090998, "INCLINATION": 98.569, "RA_OF_ASC_NODE": 75.8025, "ARG_OF_PERICENTER": 160.8167, "MEAN_ANOMALY": 254.6321, "EPHEMERIS_TYPE": 0, "CLASSIFICATION_TYPE": "U", "NORAD_CAT_ID": 29842, "ELEMENT_SET_NO": 999, "REV_AT_EPOCH": 99375, "BSTAR": 0.0015692843, "MEAN_MOTION_DOT": 8.192e-05, "MEAN_MOTION_DDOT": 0}, "tle": {"line1": "1 29842U 99025EL  25348.21652293  .00008192  00000+0  15693-2 0  9997", "line2": "2 29842  98.5690  75.8025 0109099 160.8167 254.6321 14.60282713993758"}}, "geometry": {"type": "Point", "coordinates": [130.44028020659326, -79.42759197723223]}}]}